NORAD_CAT_ID,OBJECT_NAME,OBJECT_TYPE,EPOCH,MEAN_MOTION,ECCENTRICITY,INCLINATION,RA_OF_ASC_NODE,ARG_OF_PERICENTER,MEAN_ANOMALY,BSTAR,MEAN_MOTION_DOT,MEAN_MOTION_DDOT,TLE_LINE0,TLE_LINE1,TLE_LINE2,SEMIMAJOR_AXIS,PERIOD,APOGEE,PERIGEE,DECAYED
55947.0,STARLINK-5851,PAYLOAD,2024-08-05 12:53:29,14.98343684,0.0003242,70.0004,309.566,267.6739,92.4049,0.00014482,1.636e-05,0.0,0 STARLINK-5851,1 55947U 23037AK  24218.53715075  .00001636  00000-0  14482-3 0  9993,2 55947  70.0004 309.5660 0003242 267.6739  92.4049 14.98343684 77274,6950.151,96.106,574.269,569.762,0.0
55947.0,STARLINK-5851,PAYLOAD,2024-08-05 16:05:45,14.98348226,0.0003245,70.0005,309.2295,268.4592,91.6195,0.00017808,2.033e-05,0.0,0 STARLINK-5851,1 55947U 23037AK  24218.67066627  .00002033  00000-0  17808-3 0  9997,2 55947  70.0005 309.2295 0003245 268.4592  91.6195 14.98348226 76959,6950.137,96.106,574.257,569.746,0.0
55947.0,STARLINK-5851,PAYLOAD,2024-08-06 04:54:51,14.98323935,0.0002687,70.0018,307.8848,261.452,98.6335,1.8191e-05,1.24e-06,0.0,0 STARLINK-5851,1 55947U 23037AK  24219.20476530  .00000124  00000-0  18191-4 0  9991,2 55947  70.0018 307.8848 0002687 261.4520  98.6335 14.98323935 77374,6950.212,96.107,573.944,570.209,0.0
55947.0,STARLINK-5851,PAYLOAD,2024-08-06 14:31:40,14.98320415,0.0003193,70.0005,306.8726,267.0719,93.0075,-4.0842e-05,-5.8e-06,0.0,0 STARLINK-5851,1 55947U 23037AK  24219.60533089 -.00000580  00000-0 -40842-4 0  9994,2 55947  70.0005 306.8726 0003193 267.0719  93.0075 14.98320415 77098,6950.223,96.108,574.307,569.868,0.0
55947.0,STARLINK-5851,PAYLOAD,2024-08-06 16:07:48,14.98321417,0.0003118,70.0009,306.7048,264.6946,95.3857,-2.3596e-05,-3.74e-06,0.0,0 STARLINK-5851,1 55947U 23037AK  24219.67209019 -.00000374  00000-0 -23596-4 0  9992,2 55947  70.0009 306.7048 0003118 264.6946  95.3857 14.98321417 77108,6950.219,96.108,574.252,569.917,0.0
55947.0,STARLINK-5851,PAYLOAD,2024-08-07 04:56:52,14.98334825,0.0003508,69.9995,305.3567,270.6371,89.4386,-8.9569e-06,-2e-06,0.0,0 STARLINK-5851,1 55947U 23037AK  24220.20616037 -.00000200  00000-0 -89569-5 0  9996,2 55947  69.9995 305.3567 0003508 270.6371  89.4386 14.98334825 77526,6950.178,96.107,574.481,569.605,0.0
55947.0,STARLINK-5851,PAYLOAD,2024-08-07 11:21:23,14.98344903,0.0003343,70.0004,304.6846,269.6247,90.4529,0.00014605,1.651e-05,0.0,0 STARLINK-5851,1 55947U 23037AK  24220.47319103  .00001651  00000-0  14605-3 0  9995,2 55947  70.0004 304.6846 0003343 269.6247  90.4529 14.98344903 77562,6950.147,96.106,574.335,569.688,0.0
55947.0,STARLINK-5851,PAYLOAD,2024-08-07 12:57:31,14.98345074,0.0003264,70.0008,304.5176,272.9124,87.1661,0.00013111,1.472e-05,0.0,0 STARLINK-5851,1 55947U 23037AK  24220.53995139  .00001472  00000-0  13111-3 0  9993,2 55947  70.0008 304.5176 0003264 272.9124  87.1661 14.98345074 77238,6950.146,96.106,574.28,569.743,0.0
55947.0,STARLINK-5851,PAYLOAD,2024-08-07 16:09:47,14.98343564,0.0003529,70.0001,304.1799,274.6701,85.4055,0.0001148,1.277e-05,0.0,0 STARLINK-5851,1 55947U 23037AK  24220.67347160  .00001277  00000-0  11480-3 0  9993,2 55947  70.0001 304.1799 0003529 274.6701  85.4055 14.98343564 77254,6950.151,96.106,574.469,569.563,0.0
55947.0,STARLINK-5851,PAYLOAD,2024-08-08 12:59:33,14.98329454,0.0002745,70.0017,301.9929,260.2699,99.8151,0.00031069,3.616e-05,0.0,0 STARLINK-5851,1 55947U 23037AK  24221.54136104  .00003616  00000-0  31069-3 0  9998,2 55947  70.0017 301.9929 0002745 260.2699  99.8151 14.98329454 77389,6950.195,96.107,573.967,570.152,0.0
55947.0,STARLINK-5851,PAYLOAD,2024-08-08 14:35:41,14.98332338,0.0002859,70.0015,301.8248,262.9548,97.1286,0.00031196,3.631e-05,0.0,0 STARLINK-5851,1 55947U 23037AK  24221.60811920  .00003631  00000-0  31196-3 0  9999,2 55947  70.0015 301.8248 0002859 262.9548  97.1286 14.98332338 77732,6950.186,96.107,574.038,570.064,0.0
55947.0,STARLINK-5851,PAYLOAD,2024-08-08 22:36:21,14.98353944,0.0002586,70.0026,300.982,272.6401,87.4462,-0.00028661,-3.513e-05,0.0,0 STARLINK-5851,1 55947U 23037AK  24221.94191178 -.00003513  00000-0 -28661-3 0  9996,2 55947  70.0026 300.9820 0002586 272.6401  87.4462 14.98353944 77445,6950.119,96.105,573.781,570.187,0.0
55947.0,STARLINK-5851,PAYLOAD,2024-08-09 13:01:34,14.98334672,0.0003207,70.0007,299.4681,265.9204,94.1589,-6.9553e-06,-1.76e-06,0.0,0 STARLINK-5851,1 55947U 23037AK  24222.54276133 -.00000176  00000-0 -69553-5 0  9997,2 55947  70.0007 299.4681 0003207 265.9204  94.1589 14.98334672 77877,6950.178,96.107,574.272,569.815,0.0
55947.0,STARLINK-5851,PAYLOAD,2024-08-09 14:37:42,14.98332853,0.0003161,70.0018,299.3,266.2842,93.7955,-2.6093e-05,-4.04e-06,0.0,0 STARLINK-5851,1 55947U 23037AK  24222.60951866 -.00000404  00000-0 -26093-4 0  9992,2 55947  70.0018 299.3000 0003161 266.2842  93.7955 14.98332853 77549,6950.184,96.107,574.246,569.852,0.0
55947.0,STARLINK-5851,PAYLOAD,2024-08-10 13:03:35,14.9833982,0.0003073,70.0016,296.9436,267.1351,92.9456,0.00023444,2.706e-05,0.0,0 STARLINK-5851,1 55947U 23037AK  24223.54415617  .00002706  00000-0  23444-3 0  9996,2 55947  70.0016 296.9436 0003073 267.1351  92.9456 14.98339820 78022,6950.163,96.106,574.163,569.892,0.0
55947.0,STARLINK-5851,PAYLOAD,2024-08-10 14:39:43,14.98340618,0.0003077,70.0018,296.7755,267.7486,92.3321,0.00035181,4.108e-05,0.0,0 STARLINK-5851,1 55947U 23037AK  24223.61091626  .00004108  00000-0  35181-3 0  9993,2 55947  70.0018 296.7755 0003077 267.7486  92.3321 14.98340618 77699,6950.16,96.106,574.164,569.886,0.0
55947.0,STARLINK-5851,PAYLOAD,2024-08-10 22:40:23,14.98334445,0.000252,70.0034,295.9313,277.1806,82.9066,0.00021447,2.467e-05,0.0,0 STARLINK-5851,1 55947U 23037AK  24223.94472038  .00002467  00000-0  21447-3 0  9995,2 55947  70.0034 295.9313 0002520 277.1806  82.9066 14.98334445 78087,6950.179,96.107,573.796,570.293,0.0
55947.0,STARLINK-5851,PAYLOAD,2024-08-11 14:41:44,14.98330083,0.000284,70.0013,294.2483,270.7479,89.3354,0.00023616,2.726e-05,0.0,0 STARLINK-5851,1 55947U 23037AK  24224.61232227  .00002726  00000-0  23616-3 0  9992,2 55947  70.0013 294.2483 0002840 270.7479  89.3354 14.98330083 78180,6950.193,96.107,574.031,570.084,0.0
55947.0,STARLINK-5851,PAYLOAD,2024-08-12 11:31:27,14.98361611,0.0002866,70.0017,292.0623,264.4973,95.5859,0.00060505,7.14e-05,0.0,0 STARLINK-5851,1 55947U 23037AK  24225.48018165  .00007140  00000-0  60505-3 0  9994,2 55947  70.0017 292.0623 0002866 264.4973  95.5859 14.98361611 78318,6950.095,96.105,573.952,569.968,0.0
55947.0,STARLINK-5851,PAYLOAD,2024-08-12 14:43:43,14.98369973,0.0003048,70.0013,291.7247,268.3902,91.6908,0.00074559,8.824e-05,0.0,0 STARLINK-5851,1 55947U 23037AK  24225.61369589  .00008824  00000-0  74559-3 0  9992,2 55947  70.0013 291.7247 0003048 268.3902  91.6908 14.98369973 77994,6950.069,96.104,574.053,569.816,0.0
55947.0,STARLINK-5851,PAYLOAD,2024-08-13 05:08:57,14.98325906,0.0003372,70.0013,290.2074,275.6456,84.4318,-0.00019605,-2.431e-05,0.0,0 STARLINK-5851,1 55947U 23037AK  24226.21455275 -.00002431  00000-0 -19605-3 0  9998,2 55947  70.0013 290.2074 0003372 275.6456  84.4318 14.98325906 78423,6950.206,96.107,574.414,569.727,0.0
55947.0,STARLINK-5851,PAYLOAD,2024-08-13 14:45:46,14.98320529,0.0002783,70.0013,289.1986,270.6493,89.4347,-0.0003497,-4.262e-05,0.0,0 STARLINK-5851,1 55947U 23037AK  24226.61511609 -.00004262  00000-0 -34970-3 0  9992,2 55947  70.0013 289.1986 0002783 270.6493  89.4347 14.98320529 78145,6950.222,96.108,574.021,570.153,0.0
55947.0,STARLINK-5851,PAYLOAD,2024-08-13 21:10:18,14.98318883,0.0002528,70.0019,288.5251,268.8599,91.227,-0.00038341,-4.663e-05,0.0,0 STARLINK-5851,1 55947U 23037AK  24226.88215950 -.00004663  00000-0 -38341-3 0  9992,2 55947  70.0019 288.5251 0002528 268.8599  91.2270 14.98318883 78182,6950.227,96.108,573.849,570.335,0.0
55947.0,STARLINK-5851,PAYLOAD,2024-08-14 05:10:59,14.98318577,0.000281,70.0009,287.6836,264.6286,95.4552,-0.00030503,-3.729e-05,0.0,0 STARLINK-5851,1 55947U 23037AK  24227.21596122 -.00003729  00000-0 -30503-3 0  9997,2 55947  70.0009 287.6836 0002810 264.6286  95.4552 14.98318577 78573,6950.228,96.108,574.046,570.14,0.0
55947.0,STARLINK-5851,PAYLOAD,2024-08-14 13:11:39,14.98314245,0.0002732,70.001,286.842,263.3356,96.7492,-0.00010682,-1.367e-05,0.0,0 STARLINK-5851,1 55947U 23037AK  24227.54976675 -.00001367  00000-0 -10682-3 0  9990,2 55947  70.0010 286.8420 0002732 263.3356  96.7492 14.98314245 78285,6950.242,96.108,574.005,570.208,0.0
55947.0,STARLINK-5851,PAYLOAD,2024-08-14 21:12:20,14.98319165,0.0002887,70.001,286.0007,268.5677,91.5152,3.2836e-05,2.99e-06,0.0,0 STARLINK-5851,1 55947U 23037AK  24227.88356708  .00000299  00000-0  32836-4 0  9993,2 55947  70.0010 286.0007 0002887 268.5677  91.5152 14.98319165 78330,6950.226,96.108,574.098,570.085,0.0
55947.0,STARLINK-5851,PAYLOAD,2024-08-15 05:13:00,14.98322331,0.0002873,70.0007,285.1588,266.6426,93.4404,0.00041664,4.881e-05,0.0,0 STARLINK-5851,1 55947U 23037AK  24228.21737119  .00004881  00000-0  41664-3 0  9999,2 55947  70.0007 285.1588 0002873 266.6426  93.4404 14.98322331 78729,6950.217,96.107,574.078,570.085,0.0
55947.0,STARLINK-5851,PAYLOAD,2024-08-15 10:01:25,14.98325385,0.0002878,70.0007,284.6538,266.6028,93.4802,0.00045075,5.289e-05,0.0,0 STARLINK-5851,1 55947U 23037AK  24228.41765162  .00005289  00000-0  45075-3 0  9993,2 55947  70.0007 284.6538 0002878 266.6028  93.4802 14.98325385 78411,6950.207,96.107,574.072,570.072,0.0
55947.0,STARLINK-5851,PAYLOAD,2024-08-15 21:14:21,14.9833274,0.0002922,70.0006,283.4756,267.9003,92.1822,0.00048939,5.752e-05,0.0,0 STARLINK-5851,1 55947U 23037AK  24228.88497026  .00005752  00000-0  48939-3 0  9992,2 55947  70.0006 283.4756 0002922 267.9003  92.1822 14.98332740 78484,6950.184,96.107,574.08,570.019,0.0
55947.0,STARLINK-5851,PAYLOAD,2024-08-16 05:15:01,14.9834183,0.0002984,70.0004,282.6338,267.8344,92.2474,0.00063572,7.503e-05,0.0,0 STARLINK-5851,1 55947U 23037AK  24229.21876697  .00007503  00000-0  63572-3 0  9991,2 55947  70.0004 282.6338 0002984 267.8344  92.2474 14.98341830 78871,6950.156,96.106,574.095,569.947,0.0
